{
"type": "FeatureCollection",
"name": "avalanche_events1",
"crs": { "type": "name", "properties": { "name": "urn:ogc:def:crs:OGC:1.3:CRS84" } },
"features": [
{ "type": "Feature", "properties": { "id": 1 }, "geometry": { "type": "MultiPolygon", "coordinates": [ [ [ [ -105.878268063847315, 39.648754101446357 ], [ -105.878497350120497, 39.648382737830062 ], [ -105.878763522326878, 39.648514420102735 ], [ -105.878876413511705, 39.648592210512092 ], [ -105.879049641842869, 39.648614492954088 ], [ -105.879016329191913, 39.648795627633 ], [ -105.87890612604474, 39.64893015741599 ], [ -105.878794229897778, 39.648931004102785 ], [ -105.878268063847315, 39.648754101446357 ] ] ] ] } }
]
}
