{
"type": "FeatureCollection",
"name": "avalanche_release_area",
"crs": { "type": "name", "properties": { "name": "urn:ogc:def:crs:OGC:1.3:CRS84" } },
"features": [
{ "type": "Feature", "properties": { "id": 1 }, "geometry": { "type": "MultiPolygon", "coordinates": [ [ [ [ -105.879038534086078, 39.648641119571572 ], [ -105.879014945611459, 39.648786790587792 ], [ -105.878919652518704, 39.648893681935412 ], [ -105.878823263903925, 39.64891407244582 ], [ -105.878430383431464, 39.648818738767268 ], [ -105.878087321198663, 39.648640450307141 ], [ -105.877919079789166, 39.648610264274723 ], [ -105.877821746466722, 39.648555948727768 ], [ -105.877905724708413, 39.648358702505902 ], [ -105.878000471570701, 39.648208561576205 ], [ -105.87800545823643, 39.648200659419871 ], [ -105.878225754019894, 39.648324825264943 ], [ -105.878491925498395, 39.648456508169531 ], [ -105.878777944835136, 39.648548717991837 ], [ -105.879038534086078, 39.648641119571572 ] ] ] ] } }
]
}
