{
"type": "FeatureCollection",
"name": "avalanche_release_area",
"crs": { "type": "name", "properties": { "name": "urn:ogc:def:crs:OGC:1.3:CRS84" } },
"features": [
{ "type": "Feature", "properties": { "id": 1 }, "geometry": { "type": "MultiPolygon", "coordinates": [ [ [ [ -105.878869213839366, 39.648927487560194 ], [ -105.878481319885054, 39.648824251863019 ], [ -105.878148728300346, 39.648669477768053 ], [ -105.877249785475684, 39.648377421414288 ], [ -105.877348327775593, 39.648125014359344 ], [ -105.8779858348407, 39.648257825095591 ], [ -105.878997770060792, 39.648635529735529 ], [ -105.878989340449749, 39.648773221564909 ], [ -105.878869213839366, 39.648927487560194 ] ] ] ] } }
]
}
