{
"type": "FeatureCollection",
"name": "avalanche_release_area1",
"crs": { "type": "name", "properties": { "name": "urn:ogc:def:crs:OGC:1.3:CRS84" } },
"features": [
{ "type": "Feature", "properties": { "id": 1 }, "geometry": { "type": "MultiPolygon", "coordinates": [ [ [ [ -105.879017769452688, 39.648635555972277 ], [ -105.879018068214492, 39.648659147088772 ], [ -105.879013031839477, 39.648663117434289 ], [ -105.878999914420845, 39.64883230257734 ], [ -105.878934715167631, 39.648905542232306 ], [ -105.87882299330191, 39.648920150430889 ], [ -105.878710922950077, 39.648907235552329 ], [ -105.878641687038254, 39.648862538697948 ], [ -105.878532159901653, 39.64884960440704 ], [ -105.878442380396592, 39.648789333903792 ], [ -105.878320088210288, 39.64877256372646 ], [ -105.87827364096357, 39.648719829857484 ], [ -105.878360633868212, 39.648559916702816 ], [ -105.878456002023825, 39.64845892358354 ], [ -105.878593950307518, 39.648507033029347 ], [ -105.878609681598604, 39.648544270211701 ], [ -105.878729554808046, 39.648570888961331 ], [ -105.878742867549121, 39.648617974997038 ], [ -105.878817089882446, 39.648654769605017 ], [ -105.879017769452688, 39.648635555972277 ] ] ] ] } }
]
}
