{
"type": "FeatureCollection",
"name": "avalanche_release_area",
"crs": { "type": "name", "properties": { "name": "urn:ogc:def:crs:OGC:1.3:CRS84" } },
"features": [
{ "type": "Feature", "properties": { "id": 1 }, "geometry": { "type": "MultiPolygon", "coordinates": [ [ [ [ -105.87881133780418, 39.648903526646279 ], [ -105.878945574055209, 39.64885925636171 ], [ -105.87902346380136, 39.648783954541976 ], [ -105.879100631302293, 39.648651640807657 ], [ -105.878820697117348, 39.648437486620288 ], [ -105.878459560629238, 39.648237708736758 ], [ -105.878200273055981, 39.648046990248453 ], [ -105.878029639192036, 39.64802861914842 ], [ -105.877847931075948, 39.648140095094199 ], [ -105.877825888811429, 39.648207109601074 ], [ -105.878150095948769, 39.648503508311919 ], [ -105.87827282962219, 39.648756209117174 ], [ -105.878714550926929, 39.64889246224417 ], [ -105.87881133780418, 39.648903526646279 ] ] ] ] } }
]
}
