{
"type": "FeatureCollection",
"name": "avalanche_release_area",
"crs": { "type": "name", "properties": { "name": "urn:ogc:def:crs:OGC:1.3:CRS84" } },
"features": [
{ "type": "Feature", "properties": { "id": 1, "ReleaseAre": 1841.958 }, "geometry": { "type": "MultiPolygon", "coordinates": [ [ [ [ -105.87886943787511, 39.64894518089735 ], [ -105.878975052852979, 39.648850008166356 ], [ -105.879009311706596, 39.648743578701087 ], [ -105.879007967290619, 39.64863741867746 ], [ -105.878804122358787, 39.648607503372858 ], [ -105.878641365077357, 39.648608734730431 ], [ -105.878529967100079, 39.648648899689221 ], [ -105.878331108981968, 39.648611081374142 ], [ -105.87819827170253, 39.648564899087283 ], [ -105.878081389441192, 39.6485736472452 ], [ -105.877980312723253, 39.648625530337291 ], [ -105.878460651704714, 39.648798848693374 ], [ -105.878460651704714, 39.648798848693374 ], [ -105.878460651704714, 39.648798848693374 ], [ -105.87886943787511, 39.64894518089735 ] ] ] ] } }
]
}
