<?xml version="1.0" encoding="UTF-8"?>
<kml xmlns="http://www.opengis.net/kml/2.2" xmlns:gx="http://www.google.com/kml/ext/2.2" xmlns:kml="http://www.opengis.net/kml/2.2" xmlns:atom="http://www.w3.org/2005/Atom">
<Document>
	<name>Litte_prof_start_zone.kml</name>
	<StyleMap id="m_ylw-pushpin">
		<Pair>
			<key>normal</key>
			<styleUrl>#s_ylw-pushpin</styleUrl>
		</Pair>
		<Pair>
			<key>highlight</key>
			<styleUrl>#s_ylw-pushpin_hl0</styleUrl>
		</Pair>
	</StyleMap>
	<Style id="s_ylw-pushpin">
		<IconStyle>
			<scale>1.1</scale>
			<Icon>
				<href>http://maps.google.com/mapfiles/kml/pushpin/ylw-pushpin.png</href>
			</Icon>
			<hotSpot x="20" y="2" xunits="pixels" yunits="pixels"/>
		</IconStyle>
		<LineStyle>
			<color>ff000000</color>
		</LineStyle>
		<PolyStyle>
			<color>00ffffff</color>
		</PolyStyle>
	</Style>
	<Style id="s_ylw-pushpin_hl0">
		<IconStyle>
			<scale>1.3</scale>
			<Icon>
				<href>http://maps.google.com/mapfiles/kml/pushpin/ylw-pushpin.png</href>
			</Icon>
			<hotSpot x="20" y="2" xunits="pixels" yunits="pixels"/>
		</IconStyle>
		<LineStyle>
			<color>ff000000</color>
		</LineStyle>
		<PolyStyle>
			<color>00ffffff</color>
		</PolyStyle>
	</Style>
	<Placemark>
		<name>Litte_prof_start_zone</name>
		<styleUrl>#m_ylw-pushpin</styleUrl>
		<Polygon>
			<tessellate>1</tessellate>
			<outerBoundaryIs>
				<LinearRing>
					<coordinates>
						-105.8791562702527,39.64827942528841,0 -105.8790301107848,39.64808589968648,0 -105.8788509825995,39.64788195756804,0 -105.8785613912317,39.64768041295572,0 -105.8782828080097,39.64759632887784,0 -105.8780390268606,39.64759530509424,0 -105.8778533204199,39.64768047969838,0 -105.8776477700411,39.64796715550517,0 -105.8775399836924,39.64825854246131,0 -105.8776233371349,39.64841499113426,0 -105.8777346611856,39.64851125547707,0 -105.8778945598081,39.6486179355091,0 -105.8780670486717,39.64867245321189,0 -105.8784206757768,39.64884146348854,0 -105.8786511550047,39.64890708935414,0 -105.8788355857201,39.64893874177977,0 -105.8789181778474,39.64891826914459,0 -105.8790497165491,39.64882708848643,0 -105.8792066692776,39.64865787317522,0 -105.8792683391296,39.64850331811385,0 -105.8791562702527,39.64827942528841,0 
					</coordinates>
				</LinearRing>
			</outerBoundaryIs>
		</Polygon>
		<atom:link rel="app" href="https://www.google.com/earth/about/versions/#earth-pro" title="Google Earth Pro 7.3.7.1155"></atom:link>
	</Placemark>
</Document>
</kml>
