{
"type": "FeatureCollection",
"name": "skies-non-release",
"crs": { "type": "name", "properties": { "name": "urn:ogc:def:crs:OGC:1.3:CRS84" } },
"features": [
{ "type": "Feature", "properties": { "id": 1 }, "geometry": { "type": "MultiPolygon", "coordinates": [ [ [ [ -105.879144684767681, 39.648405471031879 ], [ -105.878951483203721, 39.647960189684788 ], [ -105.87746308583263, 39.647313084600626 ], [ -105.877275724472341, 39.647729893136209 ], [ -105.879043805354186, 39.64844542259852 ], [ -105.879144684767681, 39.648405471031879 ] ] ] ] } }
]
}
